1 48993U 21060AC 26162.22567290 .00000039 00000+0 67424-4 0 9990 
2 48993 87.9098 229.9592 0001974 96.3295 263.8061 13.16594674238778 
1 48994U 21060AD 26162.18292000 .00000106 00000+0 24270-3 0 9996 
2 48994 87.9099 229.9673 0002000 93.8245 266.3114 13.16593983238788 
1 48995U 21060AE 26162.19559237 .00000037 00000+0 63349-4 0 9990 
2 48995 87.9094 229.9738 0001875 100.7000 259.4342 13.16593843238772 
1 48996U 21060AF 26162.18606884 .00000042 00000+0 75989-4 0 9990 
2 48996 87.9102 229.9656 0002246 101.8228 258.3155 13.16597137238904 
1 48997U 21060AG 26162.19400603 .00000035 00000+0 57511-4 0 9996 
2 48997 87.9101 229.9622 0001784 95.4678 264.6657 13.16594715238838 
1 48998U 21060AH 26162.20903604 .00000026 00000+0 35510-4 0 9993 
2 48998 87.9100 229.9635 0002039 108.3074 251.8279 13.16593786238778 
1 48999U 21060AJ 26162.21458904 .00000007 00000+0 -16260-4 0 9994 
2 48999 87.9100 229.9575 0002114 99.2890 260.8480 13.16595168238848 
1 49000U 21060AK 26162.16865129 .00000114 00000+0 26541-3 0 9993 
2 49000 87.9098 229.9752 0001915 101.8139 258.3207 13.16596865238810 
1 49001U 21060AL 26162.23358316 -.00000072 00000+0 -22239-3 0 9992 
2 49001 87.9099 229.9618 0001879 96.7828 263.3517 13.16593680238833 
1 49002U 21060AM 26162.22725571 -.00000010 00000+0 -58695-4 0 9991 
2 49002 87.9099 229.9562 0002179 106.9330 253.2040 13.16594143238810 
1 49075U 21075A 26162.26624274 .00000077 00000+0 17822-3 0 9996 
2 49075 87.8947 351.8397 0001761 90.9197 269.2134 13.12444424234438 
1 49076U 21075B 26162.24831039 -.00000385 00000+0 -11063-2 0 9998 
2 49076 87.8937 351.8606 0002011 86.8481 273.2878 13.12442970233781 
1 49077U 21075C 26162.09175820 .00000064 00000+0 13123-3 0 9993 
2 49077 87.9135 7.0786 0002281 87.5959 272.5434 13.17648775232829 
1 49078U 21075D 26162.22473600 .00000148 00000+0 37740-3 0 9990 
2 49078 87.8946 351.8412 0002007 92.5868 267.5490 13.12442048234408 
1 49079U 21075E 26162.13043419 .00000045 00000+0 81722-4 0 9998 
2 49079 87.9140 7.0875 0001752 99.3300 260.8030 13.17649207233407 
1 49080U 21075F 26162.25544789 .00000036 00000+0 59746-4 0 9990 
2 49080 87.9145 7.0343 0001684 103.7982 256.3337 13.17648484232836 
1 49081U 21075G 26162.08838794 .00000027 00000+0 37220-4 0 9997 
2 49081 87.9139 7.0756 0002149 94.8569 265.2808 13.17647774232806 
1 49082U 21075H 26162.26556158 .00000065 00000+0 13440-3 0 9998 
2 49082 87.9136 7.0435 0001829 91.9740 268.1602 13.17648392232857 
1 49083U 21075J 26162.23151164 -.00000098 00000+0 -30672-3 0 9998 
2 49083 87.8946 351.8434 0001725 100.2653 259.8670 13.12442760233799 
1 49084U 21075K 26162.26472168 .00000046 00000+0 86387-4 0 9998 
2 49084 87.9136 7.0477 0002139 90.8763 269.2613 13.17648392232813 
1 49085U 21075L 26161.98247363 .00000428 00000+0 11530-2 0 9994 
2 49085 87.8950 351.9002 0002101 95.0584 265.0784 13.12442692233767 
1 49086U 21075M 26162.24167073 -.00000327 00000+0 -94500-3 0 9993 
2 49086 87.8938 351.8602 0001917 89.7979 270.3369 13.12443392234409 
1 49087U 21075N 26162.26907645 .00000047 00000+0 87546-4 0 9993 
2 49087 87.9137 7.0448 0001922 84.0094 276.1257 13.17647845232842 
1 49088U 21075P 26162.11876362 .00000030 00000+0 44670-4 0 9992 
2 49088 87.9147 7.0542 0002023 86.5848 273.5515 13.17649608232809 
1 49089U 21075Q 26162.23404600 -.00000180 00000+0 -53687-3 0 9993 
2 49089 87.8947 351.8404 0001914 78.0378 282.0965 13.12443346234426 
1 49090U 21075R 26162.21795754 .00000333 00000+0 88900-3 0 9990 
2 49090 87.8945 351.8421 0001762 78.2350 281.8976 13.12443546233787 
1 49091U 21075S 26161.89946365 .00000440 00000+0 11885-2 0 9996 
2 49091 87.8950 351.9171 0001845 99.3893 260.7444 13.12442901233729 
1 49092U 21075T 26162.09344649 .00000048 00000+0 91642-4 0 9992 
2 49092 87.9136 7.0826 0002017 88.6017 271.5345 13.17648567232779 
1 49093U 21075U 26162.08669822 .00000073 00000+0 15519-3 0 9991 
2 49093 87.9143 7.0679 0002258 88.3799 271.7591 13.17648575232803 
1 49094U 21075V 26162.27386870 .00000326 00000+0 87022-3 0 9991 
2 49094 87.8948 351.8350 0001799 89.6268 270.5067 13.12444112233785 
