OBJECT_NAME,OBJECT_ID,EPOCH,MEAN_MOTION,ECCENTRICITY,INCLINATION,RA_OF_ASC_NODE,ARG_OF_PERICENTER,MEAN_ANOMALY,EPHEMERIS_TYPE,CLASSIFICATION_TYPE,NORAD_CAT_ID,ELEMENT_SET_NO,REV_AT_EPOCH,BSTAR,MEAN_MOTION_DOT,MEAN_MOTION_DDOT
ONEWEB-0275,2021-060AC,2026-06-11T05:24:58.138560,13.16594674,.00019744,87.9098,229.9592,96.3295,263.8061,0,U,48993,999,23877,.67423813E-4,.39E-6,0
ONEWEB-0276,2021-060AD,2026-06-11T04:23:24.288000,13.16593983,.00020003,87.9099,229.9673,93.8245,266.3114,0,U,48994,999,23878,.24269999E-3,.106E-5,0
ONEWEB-0277,2021-060AE,2026-06-11T04:41:39.180768,13.16593843,.00018758,87.9094,229.9738,100.7000,259.4342,0,U,48995,999,23877,.63349136E-4,.37E-6,0
ONEWEB-0278,2021-060AF,2026-06-11T04:27:56.347776,13.16597137,.00022464,87.9102,229.9656,101.8228,258.3155,0,U,48996,999,23890,.75989286E-4,.42E-6,0
ONEWEB-0279,2021-060AG,2026-06-11T04:39:22.120992,13.16594715,.00017849,87.9101,229.9622,95.4678,264.6657,0,U,48997,999,23883,.57510792E-4,.35E-6,0
ONEWEB-0280,2021-060AH,2026-06-11T05:01:00.713856,13.16593786,.00020391,87.9100,229.9635,108.3074,251.8279,0,U,48998,999,23877,.35509964E-4,.26E-6,0
ONEWEB-0281,2021-060AJ,2026-06-11T05:09:00.493056,13.16595168,.0002114,87.9100,229.9575,99.2890,260.8480,0,U,48999,999,23884,-.16259979E-4,.7E-7,0
ONEWEB-0282,2021-060AK,2026-06-11T04:02:51.471456,13.16596865,.00019159,87.9098,229.9752,101.8139,258.3207,0,U,49000,999,23881,.2654132E-3,.114E-5,0
ONEWEB-0283,2021-060AL,2026-06-11T05:36:21.585024,13.16593680,.00018792,87.9099,229.9618,96.7828,263.3517,0,U,49001,999,23883,-.22239459E-3,-.72E-6,0
ONEWEB-0284,2021-060AM,2026-06-11T05:27:14.893344,13.16594143,.00021797,87.9099,229.9562,106.9330,253.2040,0,U,49002,999,23881,-.58695147E-4,-.1E-6,0
ONEWEB-0285,2021-075A,2026-06-11T06:23:23.372736,13.12444424,.00017619,87.8947,351.8397,90.9197,269.2134,0,U,49075,999,23443,.17822285E-3,.77E-6,0
ONEWEB-0286,2021-075B,2026-06-11T05:57:34.017696,13.12442970,.00020113,87.8937,351.8606,86.8481,273.2878,0,U,49076,999,23378,-.1106273E-2,-.385E-5,0
ONEWEB-0287,2021-075C,2026-06-11T02:12:07.908480,13.17648775,.00022819,87.9135,7.0786,87.5959,272.5434,0,U,49077,999,23282,.13122825E-3,.64E-6,0
ONEWEB-0288,2021-075D,2026-06-11T05:23:37.190400,13.12442048,.00020076,87.8946,351.8412,92.5868,267.5490,0,U,49078,999,23440,.3774038E-3,.148E-5,0
ONEWEB-0289,2021-075E,2026-06-11T03:07:49.514016,13.17649207,.00017523,87.9140,7.0875,99.3300,260.8030,0,U,49079,999,23340,.81721913E-4,.45E-6,0
ONEWEB-0290,2021-075F,2026-06-11T06:07:50.697696,13.17648484,.00016841,87.9145,7.0343,103.7982,256.3337,0,U,49080,999,23283,.59745998E-4,.36E-6,0
ONEWEB-0291,2021-075G,2026-06-11T02:07:16.718016,13.17647774,.00021497,87.9139,7.0756,94.8569,265.2808,0,U,49081,999,23280,.37219936E-4,.27E-6,0
ONEWEB-0293,2021-075H,2026-06-11T06:22:24.520512,13.17648392,.00018297,87.9136,7.0435,91.9740,268.1602,0,U,49082,999,23285,.13440144E-3,.65E-6,0
ONEWEB-0294,2021-075J,2026-06-11T05:33:22.605696,13.12442760,.00017253,87.8946,351.8434,100.2653,259.8670,0,U,49083,999,23379,-.3067226E-3,-.98E-6,0
ONEWEB-0295,2021-075K,2026-06-11T06:21:11.953152,13.17648392,.00021393,87.9136,7.0477,90.8763,269.2613,0,U,49084,999,23281,.86387134E-4,.46E-6,0
ONEWEB-0296,2021-075L,2026-06-10T23:34:45.721632,13.12442692,.00021011,87.8950,351.9002,95.0584,265.0784,0,U,49085,999,23376,.11529637E-2,.428E-5,0
ONEWEB-0297,2021-075M,2026-06-11T05:48:00.351072,13.12443392,.00019171,87.8938,351.8602,89.7979,270.3369,0,U,49086,999,23440,-.94499959E-3,-.327E-5,0
ONEWEB-0298,2021-075N,2026-06-11T06:27:28.205280,13.17647845,.00019225,87.9137,7.0448,84.0094,276.1257,0,U,49087,999,23284,.87545603E-4,.47E-6,0
ONEWEB-0299,2021-075P,2026-06-11T02:51:01.176768,13.17649608,.00020236,87.9147,7.0542,86.5848,273.5515,0,U,49088,999,23280,.44670475E-4,.3E-6,0
ONEWEB-0300,2021-075Q,2026-06-11T05:37:01.574400,13.12443346,.00019143,87.8947,351.8404,78.0378,282.0965,0,U,49089,999,23442,-.53687028E-3,-.18E-5,0
ONEWEB-0301,2021-075R,2026-06-11T05:13:51.531456,13.12443546,.00017621,87.8945,351.8421,78.2350,281.8976,0,U,49090,999,23378,.88900145E-3,.333E-5,0
ONEWEB-0302,2021-075S,2026-06-10T21:35:13.659360,13.12442901,.00018459,87.8950,351.9171,99.3893,260.7444,0,U,49091,999,23372,.11884915E-2,.44E-5,0
ONEWEB-0304,2021-075T,2026-06-11T02:14:33.776736,13.17648567,.00020174,87.9136,7.0826,88.6017,271.5345,0,U,49092,999,23277,.91642155E-4,.48E-6,0
ONEWEB-0305,2021-075U,2026-06-11T02:04:50.726208,13.17648575,.00022589,87.9143,7.0679,88.3799,271.7591,0,U,49093,999,23280,.15518865E-3,.73E-6,0
ONEWEB-0308,2021-075V,2026-06-11T06:34:22.255680,13.12444112,.00017996,87.8948,351.8350,89.6268,270.5067,0,U,49094,999,23378,.87021752E-3,.326E-5,0
